{"type": "FeatureCollection", "features": [ {"type": "Feature", "properties": {"norad_id": 33674, "name": "FENGYUN 1C DEB", "group": "fengyun-1c-debris", "lat": -81.24451177676715, "lon": 130.51137894772023, "alt_km": 829.7097717961142, "timestamp": "2025-12-05T09:41:19.416875+00:00", "meta": {"OBJECT_NAME": "FENGYUN 1C DEB", "OBJECT_ID": "1999-025DFK", "EPOCH": "2025-12-02T01:53:41.579808", "MEAN_MOTION": 13.76813989, "ECCENTRICITY": 0.02100329, "INCLINATION": 98.6065, "RA_OF_ASC_NODE": 27.0218, "ARG_OF_PERICENTER": 268.727, "MEAN_ANOMALY": 88.9815, "EPHEMERIS_TYPE": 0, "CLASSIFICATION_TYPE": "U", "NORAD_CAT_ID": 33674, "ELEMENT_SET_NO": 999, "REV_AT_EPOCH": 88218, "BSTAR": 0.0021724399, "MEAN_MOTION_DOT": 2.475e-05, "MEAN_MOTION_DDOT": 0}, "tle": {"line1": "1 33674U 99025DFK 25336.07895347  .00002475  00000+0  21724-2 0  9995", "line2": "2 33674  98.6065  27.0218 0210032 268.7270  88.9815 13.76813989882180"}}, "geometry": {"type": "Point", "coordinates": [130.51137894772023, -81.24451177676715]}}, {"type": "Feature", "properties": {"norad_id": 33676, "name": "FENGYUN 1C DEB", "group": "fengyun-1c-debris", "lat": 49.09102488091289, "lon": -165.8496230071334, "alt_km": 653.570632411539, "timestamp": "2025-12-05T09:41:19.416885+00:00", "meta": {"OBJECT_NAME": "FENGYUN 1C DEB", "OBJECT_ID": "1999-025DFM", "EPOCH": "2025-12-03T06:55:10.331328", "MEAN_MOTION": 14.35547603, "ECCENTRICITY": 0.0205212, "INCLINATION": 99.0969, "RA_OF_ASC_NODE": 1.2635, "ARG_OF_PERICENTER": 97.1246, "MEAN_ANOMALY": 265.3319, "EPHEMERIS_TYPE": 0, "CLASSIFICATION_TYPE": "U", "NORAD_CAT_ID": 33676, "ELEMENT_SET_NO": 999, "REV_AT_EPOCH": 65175, "BSTAR": 0.00019307, "MEAN_MOTION_DOT": 6.51e-06, "MEAN_MOTION_DDOT": 0}, "tle": {"line1": "1 33676U 99025DFM 25337.28831402  .00000651  00000+0  19307-3 0  9992", "line2": "2 33676  99.0969   1.2635 0205212  97.1246 265.3319 14.35547603651758"}}, "geometry": {"type": "Point", "coordinates": [-165.8496230071334, 49.09102488091289]}}, {"type": "Feature", "properties": {"norad_id": 33678, "name": "FENGYUN 1C DEB", "group": "fengyun-1c-debris", "lat": 56.930847385358895, "lon": -121.43457944084803, "alt_km": 833.9442943626455, "timestamp": "2025-12-05T09:41:19.416895+00:00", "meta": {"OBJECT_NAME": "FENGYUN 1C DEB", "OBJECT_ID": "1999-025DFP", "EPOCH": "2025-12-02T03:07:23.149920", "MEAN_MOTION": 14.47227945, "ECCENTRICITY": 0.02047899, "INCLINATION": 99.0446, "RA_OF_ASC_NODE": 40.9067, "ARG_OF_PERICENTER": 268.4727, "MEAN_ANOMALY": 89.2998, "EPHEMERIS_TYPE": 0, "CLASSIFICATION_TYPE": "U", "NORAD_CAT_ID": 33678, "ELEMENT_SET_NO": 999, "REV_AT_EPOCH": 94942, "BSTAR": 0.00079647457, "MEAN_MOTION_DOT": 3.725e-05, "MEAN_MOTION_DDOT": 0}, "tle": {"line1": "1 33678U 99025DFP 25336.13012905  .00003725  00000+0  79647-3 0  9994", "line2": "2 33678  99.0446  40.9067 0204789 268.4727  89.2998 14.47227945949421"}}, "geometry": {"type": "Point", "coordinates": [-121.43457944084803, 56.930847385358895]}}, {"type": "Feature", "properties": {"norad_id": 33679, "name": "FENGYUN 1C DEB", "group": "fengyun-1c-debris", "lat": -4.203167786161968, "lon": 45.226678337291126, "alt_km": 475.47365079763404, "timestamp": "2025-12-05T09:41:19.416905+00:00", "meta": {"OBJECT_NAME": "FENGYUN 1C DEB", "OBJECT_ID": "1999-025DFQ", "EPOCH": "2025-12-04T03:19:52.336416", "MEAN_MOTION": 15.02002155, "ECCENTRICITY": 0.01505516, "INCLINATION": 99.3482, "RA_OF_ASC_NODE": 43.0103, "ARG_OF_PERICENTER": 327.4216, "MEAN_ANOMALY": 31.778, "EPHEMERIS_TYPE": 0, "CLASSIFICATION_TYPE": "U", "NORAD_CAT_ID": 33679, "ELEMENT_SET_NO": 999, "REV_AT_EPOCH": 93994, "BSTAR": 0.0027049661, "MEAN_MOTION_DOT": 0.00045476, "MEAN_MOTION_DDOT": 0}, "tle": {"line1": "1 33679U 99025DFQ 25338.13880019  .00045476  00000+0  27050-2 0  9995", "line2": "2 33679  99.3482  43.0103 0150551 327.4216  31.7780 15.02002155939949"}}, "geometry": {"type": "Point", "coordinates": [45.226678337291126, -4.203167786161968]}}, {"type": "Feature", "properties": {"norad_id": 33682, "name": "FENGYUN 1C DEB", "group": "fengyun-1c-debris", "lat": -2.0003239807834867, "lon": 25.762814964424113, "alt_km": 811.7311735867879, "timestamp": "2025-12-05T09:41:19.416915+00:00", "meta": {"OBJECT_NAME": "FENGYUN 1C DEB", "OBJECT_ID": "1999-025DFT", "EPOCH": "2025-12-03T02:09:00.429984", "MEAN_MOTION": 14.26572942, "ECCENTRICITY": 0.00292638, "INCLINATION": 99.4219, "RA_OF_ASC_NODE": 22.942, "ARG_OF_PERICENTER": 109.8341, "MEAN_ANOMALY": 250.5995, "EPHEMERIS_TYPE": 0, "CLASSIFICATION_TYPE": "U", "NORAD_CAT_ID": 33682, "ELEMENT_SET_NO": 999, "REV_AT_EPOCH": 91560, "BSTAR": 0.0019395414, "MEAN_MOTION_DOT": 4.654e-05, "MEAN_MOTION_DDOT": 0}, "tle": {"line1": "1 33682U 99025DFT 25337.08958831  .00004654  00000+0  19395-2 0  9996", "line2": "2 33682  99.4219  22.9420 0029263 109.8341 250.5995 14.26572942915603"}}, "geometry": {"type": "Point", "coordinates": [25.762814964424113, -2.0003239807834867]}}, {"type": "Feature", "properties": {"norad_id": 33684, "name": "FENGYUN 1C DEB", "group": "fengyun-1c-debris", "lat": -19.706596958871994, "lon": -149.15113345161717, "alt_km": 851.256281637, "timestamp": "2025-12-05T09:41:19.416925+00:00", "meta": {"OBJECT_NAME": "FENGYUN 1C DEB", "OBJECT_ID": "1999-025DFV", "EPOCH": "2025-12-03T22:32:33.696960", "MEAN_MOTION": 14.72837728, "ECCENTRICITY": 0.0288949, "INCLINATION": 99.0677, "RA_OF_ASC_NODE": 32.4922, "ARG_OF_PERICENTER": 7.9289, "MEAN_ANOMALY": 352.634, "EPHEMERIS_TYPE": 0, "CLASSIFICATION_TYPE": "U", "NORAD_CAT_ID": 33684, "ELEMENT_SET_NO": 999, "REV_AT_EPOCH": 92859, "BSTAR": 0.0014257, "MEAN_MOTION_DOT": 0.00017805, "MEAN_MOTION_DDOT": 0}, "tle": {"line1": "1 33684U 99025DFV 25337.93927890  .00017805  00000+0  14257-2 0  9997", "line2": "2 33684  99.0677  32.4922 0288949   7.9289 352.6340 14.72837728928596"}}, "geometry": {"type": "Point", "coordinates": [-149.15113345161717, -19.706596958871994]}}, {"type": "Feature", "properties": {"norad_id": 33687, "name": "FENGYUN 1C DEB", "group": "fengyun-1c-debris", "lat": -56.08482537229265, "lon": 150.12555741854985, "alt_km": 564.8097488517406, "timestamp": "2025-12-05T09:41:19.416934+00:00", "meta": {"OBJECT_NAME": "FENGYUN 1C DEB", "OBJECT_ID": "1999-025DFY", "EPOCH": "2025-12-02T06:16:02.710272", "MEAN_MOTION": 15.17405521, "ECCENTRICITY": 0.0119547, "INCLINATION": 98.9972, "RA_OF_ASC_NODE": 340.0261, "ARG_OF_PERICENTER": 11.3354, "MEAN_ANOMALY": 349.0524, "EPHEMERIS_TYPE": 0, "CLASSIFICATION_TYPE": "U", "NORAD_CAT_ID": 33687, "ELEMENT_SET_NO": 999, "REV_AT_EPOCH": 71349, "BSTAR": 0.0018833, "MEAN_MOTION_DOT": 0.00045488, "MEAN_MOTION_DDOT": 0}, "tle": {"line1": "1 33687U 99025DFY 25336.26114248  .00045488  00000+0  18833-2 0  9992", "line2": "2 33687  98.9972 340.0261 0119547  11.3354 349.0524 15.17405521713495"}}, "geometry": {"type": "Point", "coordinates": [150.12555741854985, -56.08482537229265]}}, {"type": "Feature", "properties": {"norad_id": 33688, "name": "FENGYUN 1C DEB", "group": "fengyun-1c-debris", "lat": 36.29487165750281, "lon": -93.00467249761417, "alt_km": 767.6128080665758, "timestamp": "2025-12-05T09:41:19.416944+00:00", "meta": {"OBJECT_NAME": "FENGYUN 1C DEB", "OBJECT_ID": "1999-025DFZ", "EPOCH": "2025-12-02T06:15:25.398432", "MEAN_MOTION": 14.45255894, "ECCENTRICITY": 0.0053128, "INCLINATION": 99.3492, "RA_OF_ASC_NODE": 76.5882, "ARG_OF_PERICENTER": 293.1663, "MEAN_ANOMALY": 66.3934, "EPHEMERIS_TYPE": 0, "CLASSIFICATION_TYPE": "U", "NORAD_CAT_ID": 33688, "ELEMENT_SET_NO": 999, "REV_AT_EPOCH": 91330, "BSTAR": 0.0032471, "MEAN_MOTION_DOT": 0.00011555, "MEAN_MOTION_DDOT": 0}, "tle": {"line1": "1 33688U 99025DFZ 25336.26071063  .00011555  00000+0  32471-2 0  9992", "line2": "2 33688  99.3492  76.5882 0053128 293.1663  66.3934 14.45255894913305"}}, "geometry": {"type": "Point", "coordinates": [-93.00467249761417, 36.29487165750281]}}, {"type": "Feature", "properties": {"norad_id": 33689, "name": "FENGYUN 1C DEB", "group": "fengyun-1c-debris", "lat": -8.968229307800192, "lon": 164.28199478390803, "alt_km": 713.2231049577476, "timestamp": "2025-12-05T09:41:19.416954+00:00", "meta": {"OBJECT_NAME": "FENGYUN 1C DEB", "OBJECT_ID": "1999-025DGA", "EPOCH": "2025-11-29T19:02:12.805728", "MEAN_MOTION": 14.44995922, "ECCENTRICITY": 0.00478162, "INCLINATION": 99.5667, "RA_OF_ASC_NODE": 339.4956, "ARG_OF_PERICENTER": 189.1023, "MEAN_ANOMALY": 349.9963, "EPHEMERIS_TYPE": 0, "CLASSIFICATION_TYPE": "U", "NORAD_CAT_ID": 33689, "ELEMENT_SET_NO": 999, "REV_AT_EPOCH": 69343, "BSTAR": 0.0010237814, "MEAN_MOTION_DOT": 3.568e-05, "MEAN_MOTION_DDOT": 0}, "tle": {"line1": "1 33689U 99025DGA 25333.79320377  .00003568  00000+0  10238-2 0  9995", "line2": "2 33689  99.5667 339.4956 0047816 189.1023 349.9963 14.44995922693439"}}, "geometry": {"type": "Point", "coordinates": [164.28199478390803, -8.968229307800192]}}, {"type": "Feature", "properties": {"norad_id": 33690, "name": "FENGYUN 1C DEB", "group": "fengyun-1c-debris", "lat": 22.18771057164845, "lon": 74.04696450419145, "alt_km": 707.0381666416606, "timestamp": "2025-12-05T09:41:19.416964+00:00", "meta": {"OBJECT_NAME": "FENGYUN 1C DEB", "OBJECT_ID": "1999-025DGB", "EPOCH": "2025-12-04T05:27:20.885184", "MEAN_MOTION": 14.51220952, "ECCENTRICITY": 0.0031142, "INCLINATION": 98.6132, "RA_OF_ASC_NODE": 76.3866, "ARG_OF_PERICENTER": 76.4852, "MEAN_ANOMALY": 283.9809, "EPHEMERIS_TYPE": 0, "CLASSIFICATION_TYPE": "U", "NORAD_CAT_ID": 33690, "ELEMENT_SET_NO": 999, "REV_AT_EPOCH": 93096, "BSTAR": 0.005632, "MEAN_MOTION_DOT": 0.00022544, "MEAN_MOTION_DDOT": 0}, "tle": {"line1": "1 33690U 99025DGB 25338.22732506  .00022544  00000+0  56320-2 0  9998", "line2": "2 33690  98.6132  76.3866 0031142  76.4852 283.9809 14.51220952930968"}}, "geometry": {"type": "Point", "coordinates": [74.04696450419145, 22.18771057164845]}}]}